NORAD_CAT_ID,OBJECT_NAME,OBJECT_TYPE,EPOCH,MEAN_MOTION,ECCENTRICITY,INCLINATION,RA_OF_ASC_NODE,ARG_OF_PERICENTER,MEAN_ANOMALY,BSTAR,MEAN_MOTION_DOT,MEAN_MOTION_DDOT,TLE_LINE0,TLE_LINE1,TLE_LINE2,SEMIMAJOR_AXIS,PERIOD,APOGEE,PERIGEE,DECAYED
55644.0,STARLINK-5502,PAYLOAD,2023-04-19 16:52:05,15.69924428,0.0003696,69.996,338.6256,263.2331,96.8444,-1.1165e-05,-1.555e-05,0.0,0 STARLINK-5502,1 55644U 23021S   23109.70284331 -.00001555  00000-0 -11165-4 0  9991,2 55644  69.9960 338.6256 0003696 263.2331  96.8444 15.69924428 10413,6737.25,91.724,361.605,356.625,0.0
55644.0,STARLINK-5502,PAYLOAD,2023-04-20 02:02:35,15.69931909,0.0003194,69.9967,337.5493,253.4115,106.673,9.5198e-06,9.32e-06,0.0,0 STARLINK-5502,1 55644U 23021S   23110.08513419  .00000932  00000-0  95198-5 0  9991,2 55644  69.9967 337.5493 0003194 253.4115 106.6730 15.69931909 10471,6737.229,91.724,361.246,356.942,0.0
55644.0,STARLINK-5502,PAYLOAD,2023-04-20 15:48:22,15.699121,0.0003695,69.9969,335.9351,268.1333,91.944,-1.2144e-06,-3.59e-06,0.0,0 STARLINK-5502,1 55644U 23021S   23110.65859929 -.00000359  00000-0 -12144-5 0  9998,2 55644  69.9969 335.9351 0003695 268.1333  91.9440 15.69912100 10565,6737.285,91.725,361.64,356.661,0.0
55644.0,STARLINK-5502,PAYLOAD,2023-04-21 08:37:38,15.69922915,0.0003167,69.9972,333.9687,278.1147,81.9689,2.5168e-05,2.814e-05,0.0,0 STARLINK-5502,1 55644U 23021S   23111.35947400  .00002814  00000-0  25168-4 0  9993,2 55644  69.9972 333.9687 0003167 278.1147  81.9689 15.69922915 10678,6737.255,91.724,361.253,356.986,0.0
55644.0,STARLINK-5502,PAYLOAD,2023-04-21 14:44:38,15.69924939,0.0003099,69.9982,333.2502,246.8276,113.2593,9.4644e-06,9.26e-06,0.0,0 STARLINK-5502,1 55644U 23021S   23111.61433937  .00000926  00000-0  94644-5 0  9995,2 55644  69.9982 333.2502 0003099 246.8276 113.2593 15.69924939 10713,6737.249,91.724,361.202,357.026,0.0
55644.0,STARLINK-5502,PAYLOAD,2023-04-22 13:40:55,15.69918623,0.0002849,70.0,330.5669,258.7516,101.3359,2.0912e-05,2.302e-05,0.0,0 STARLINK-5502,1 55644U 23021S   23112.57009185  .00002302  00000-0  20912-4 0  9991,2 55644  70.0000 330.5669 0002849 258.7516 101.3359 15.69918623 10555,6737.267,91.724,361.051,357.212,0.0
55644.0,STARLINK-5502,PAYLOAD,2023-04-22 21:19:42,15.69885753,0.0003272,69.9993,329.6692,259.9253,100.1574,5.0705e-05,5.879e-05,0.0,0 STARLINK-5502,1 55644U 23021S   23112.88868990  .00005879  00000-0  50705-4 0  9997,2 55644  69.9993 329.6692 0003272 259.9253 100.1574 15.69885753 10609,6737.361,91.726,361.43,357.021,0.0
55644.0,STARLINK-5502,PAYLOAD,2023-04-23 14:08:57,15.69927909,0.0003938,69.9972,327.6971,263.2402,96.8345,1.7251e-05,1.862e-05,0.0,0 STARLINK-5502,1 55644U 23021S   23113.58955371  .00001862  00000-0  17251-4 0  9992,2 55644  69.9972 327.6971 0003938 263.2402  96.8345 15.69927909 11021,6737.24,91.724,361.758,356.452,0.0
55644.0,STARLINK-5502,PAYLOAD,2023-04-24 13:05:13,15.69932979,0.0003929,69.9971,325.0101,259.7505,100.3248,5.3653e-05,6.246e-05,0.0,0 STARLINK-5502,1 55644U 23021S   23114.54529206  .00006246  00000-0  53653-4 0  9990,2 55644  69.9971 325.0101 0003929 259.7505 100.3248 15.69932979 11173,6737.226,91.724,361.738,356.444,0.0
55644.0,STARLINK-5502,PAYLOAD,2023-04-25 13:33:18,15.69898806,0.0003886,69.9986,322.1445,275.2289,84.8464,-4.2994e-05,-5.375e-05,0.0,0 STARLINK-5502,1 55644U 23021S   23115.56479545 -.00005375  00000-0 -42994-4 0  9993,2 55644  69.9986 322.1445 0003886 275.2289  84.8464 15.69898806 11336,6737.324,91.726,361.807,356.57,0.0
55644.0,STARLINK-5502,PAYLOAD,2023-04-26 12:29:34,15.69911001,0.0004095,69.9988,319.4573,272.5485,87.5242,4.4895e-05,5.186e-05,0.0,0 STARLINK-5502,1 55644U 23021S   23116.52053244  .00005186  00000-0  44895-4 0  9994,2 55644  69.9988 319.4573 0004095 272.5485  87.5242 15.69911001 11483,6737.289,91.725,361.913,356.395,0.0
55644.0,STARLINK-5502,PAYLOAD,2023-04-26 17:04:49,15.69912919,0.0004089,69.9986,318.9195,271.4434,88.6293,3.9694e-05,4.561e-05,0.0,0 STARLINK-5502,1 55644U 23021S   23116.71168255  .00004561  00000-0  39694-4 0  9991,2 55644  69.9986 318.9195 0004089 271.4434  88.6293 15.69912919 11511,6737.283,91.725,361.903,356.393,0.0
55644.0,STARLINK-5502,PAYLOAD,2023-04-27 20:36:19,15.69973019,0.0004183,69.9975,315.6943,263.9195,96.1525,-2.924e-05,-3.736e-05,0.0,0 STARLINK-5502,1 55644U 23021S   23117.85855823 -.00003736  00000-0 -29240-4 0  9992,2 55644  69.9975 315.6943 0004183 263.9195  96.1525 15.69973019 11384,6737.111,91.721,361.794,356.158,0.0
55644.0,STARLINK-5502,PAYLOAD,2023-04-27 23:39:50,15.69951729,0.0003775,69.9976,315.336,276.452,83.6246,-5.0867e-05,-6.332e-05,0.0,0 STARLINK-5502,1 55644U 23021S   23117.98600632 -.00006332  00000-0 -50867-4 0  9996,2 55644  69.9976 315.3360 0003775 276.4520  83.6246 15.69951729 11400,6737.172,91.723,361.58,356.494,0.0
55644.0,STARLINK-5502,PAYLOAD,2023-04-28 11:53:53,15.6991672,0.0003653,69.9981,313.9037,274.6578,85.42,7.3697e-06,6.73e-06,0.0,0 STARLINK-5502,1 55644U 23021S   23118.49575367  .00000673  00000-0  73697-5 0  9996,2 55644  69.9981 313.9037 0003653 274.6578  85.4200 15.69916720 11489,6737.272,91.725,361.598,356.676,0.0
55644.0,STARLINK-5502,PAYLOAD,2023-04-28 21:04:23,15.69927183,0.0003725,69.9968,312.8285,274.1193,85.9577,1.861e-05,2.026e-05,0.0,0 STARLINK-5502,1 55644U 23021S   23118.87804589  .00002026  00000-0  18610-4 0  9996,2 55644  69.9968 312.8285 0003725 274.1193  85.9577 15.69927183 11549,6737.242,91.724,361.617,356.598,0.0
55644.0,STARLINK-5502,PAYLOAD,2023-04-29 13:53:40,15.69926835,0.0003647,69.9977,310.8592,283.5317,76.5473,1.3e-06,-5.7e-07,0.0,0 STARLINK-5502,1 55644U 23021S   23119.57893605 -.00000057  00000-0  13000-5 0  9993,2 55644  69.9977 310.8592 0003647 283.5317  76.5473 15.69926835 11963,6737.243,91.724,361.565,356.651,0.0
55644.0,STARLINK-5502,PAYLOAD,2023-04-29 23:04:10,15.69932983,0.0003701,69.9987,309.7827,269.6598,90.4173,3.55e-06,2.14e-06,0.0,0 STARLINK-5502,1 55644U 23021S   23119.96122858  .00000214  00000-0  35500-5 0  9994,2 55644  69.9987 309.7827 0003701 269.6598  90.4173 15.69932983 11715,6737.226,91.724,361.584,356.597,0.0
55644.0,STARLINK-5502,PAYLOAD,2023-04-30 14:21:42,15.69918529,0.0003979,69.9981,307.9915,268.6128,91.4612,-5.6138e-06,-8.88e-06,0.0,0 STARLINK-5502,1 55644U 23021S   23120.59840388 -.00000888  00000-0 -56138-5 0  9999,2 55644  69.9981 307.9915 0003979 268.6128  91.4612 15.69918529 11812,6737.267,91.725,361.813,356.451,0.0
55644.0,STARLINK-5502,PAYLOAD,2023-04-30 22:00:27,15.69927039,0.0003606,69.9967,307.0949,265.2186,94.8598,8.3386e-06,7.9e-06,0.0,0 STARLINK-5502,1 55644U 23021S   23120.91698391  .00000790  00000-0  83386-5 0  9995,2 55644  69.9967 307.0949 0003606 265.2186  94.8598 15.69927039 11869,6737.243,91.724,361.537,356.678,0.0
55644.0,STARLINK-5502,PAYLOAD,2023-05-01 13:17:58,15.6992627,0.0003426,69.9968,305.3029,262.4528,97.6278,1.4303e-05,1.507e-05,0.0,0 STARLINK-5502,1 55644U 23021S   23121.55415176  .00001507  00000-0  14303-4 0  9993,2 55644  69.9968 305.3029 0003426 262.4528  97.6278 15.69926270 12277,6737.245,91.724,361.418,356.802,0.0
55644.0,STARLINK-5502,PAYLOAD,2023-05-01 20:56:43,15.69934903,0.0003599,69.998,304.4068,259.5262,100.5528,2.4642e-05,2.752e-05,0.0,0 STARLINK-5502,1 55644U 23021S   23121.87273013  .00002752  00000-0  24642-4 0  9990,2 55644  69.9980 304.4068 0003599 259.5262 100.5528 15.69934903 12327,6737.22,91.724,361.51,356.661,0.0
55644.0,STARLINK-5502,PAYLOAD,2023-05-01 22:28:29,15.69932589,0.0003508,69.9984,304.2273,259.2033,100.8767,2.2722e-05,2.521e-05,0.0,0 STARLINK-5502,1 55644U 23021S   23121.93644841  .00002521  00000-0  22722-4 0  9999,2 55644  69.9984 304.2273 0003508 259.2033 100.8767 15.69932589 12023,6737.227,91.724,361.455,356.728,0.0
55644.0,STARLINK-5502,PAYLOAD,2023-05-02 13:46:00,15.69927657,0.0003567,69.9983,302.4345,252.8555,107.225,1.3882e-05,1.457e-05,0.0,0 STARLINK-5502,1 55644U 23021S   23122.57361690  .00001457  00000-0  13882-4 0  9992,2 55644  69.9983 302.4345 0003567 252.8555 107.2250 15.69927657 12124,6737.241,91.724,361.509,356.703,0.0
55644.0,STARLINK-5502,PAYLOAD,2023-05-02 19:53:00,15.69929734,0.0003448,69.9993,301.7202,263.5638,96.5165,1.876e-05,2.044e-05,0.0,0 STARLINK-5502,1 55644U 23021S   23122.82848318  .00002044  00000-0  18760-4 0  9990,2 55644  69.9993 301.7202 0003448 263.5638  96.5165 15.69929734 12479,6737.235,91.724,361.423,356.777,0.0
55644.0,STARLINK-5502,PAYLOAD,2023-05-03 05:03:31,15.69922852,0.0003936,69.9991,300.646,267.8496,92.2249,5.6464e-06,4.66e-06,0.0,0 STARLINK-5502,1 55644U 23021S   23123.21078689  .00000466  00000-0  56464-5 0  9990,2 55644  69.9991 300.6460 0003936 267.8496  92.2249 15.69922852 12225,6737.255,91.724,361.772,356.468,0.0
55644.0,STARLINK-5502,PAYLOAD,2023-05-03 14:14:02,15.69930186,0.0003899,69.9987,299.5717,271.4754,88.5995,4.5494e-06,3.34e-06,0.0,0 STARLINK-5502,1 55644U 23021S   23123.59308333  .00000334  00000-0  45494-5 0  9998,2 55644  69.9987 299.5717 0003899 271.4754  88.5995 15.69930186 12592,6737.234,91.724,361.726,356.472,0.0
55644.0,STARLINK-5502,PAYLOAD,2023-05-03 20:21:02,15.69930046,0.0003926,69.9988,298.8551,272.2041,87.8705,6.5142e-06,5.7e-06,0.0,0 STARLINK-5502,1 55644U 23021S   23123.84794922  .00000570  00000-0  65142-5 0  9993,2 55644  69.9988 298.8551 0003926 272.2041  87.8705 15.69930046 12631,6737.234,91.724,361.744,356.454,0.0
55644.0,STARLINK-5502,PAYLOAD,2023-05-04 13:10:19,15.69927483,0.0003421,69.9999,296.8847,271.9552,88.1252,1.3254e-05,1.381e-05,0.0,0 STARLINK-5502,1 55644U 23021S   23124.54883715  .00001381  00000-0  13254-4 0  9997,2 55644  69.9999 296.8847 0003421 271.9552  88.1252 15.69927483 12432,6737.241,91.724,361.411,356.802,0.0
55644.0,STARLINK-5502,PAYLOAD,2023-05-04 20:49:05,15.69917912,0.0003204,69.9999,295.9889,278.4695,81.6137,-5.6306e-06,-8.89e-06,0.0,0 STARLINK-5502,1 55644U 23021S   23124.86742565 -.00000889  00000-0 -56306-5 0  9999,2 55644  69.9999 295.9889 0003204 278.4695  81.6137 15.69917912 12488,6737.269,91.725,361.292,356.975,0.0
